STARLINK-30500          
1 58076U 23160B   26068.07973748 -.00001650  00000+0 -51834-4 0  9993
2 58076  42.9967  81.2229 0000954 267.7330  92.3412 15.26745168132850
XCUBE-1                 
1 62400U 24247Z   26068.48297321  .00009773  00000+0  36224-3 0  9994
2 62400  44.9938 117.7807 0005235 331.1499  28.9094 15.27910558 67702
